{
    "CCSDS_OMM_VERS": "3.0",
    "COMMENT": "GENERATED VIA SPACE-TRACK.ORG API",
    "CREATION_DATE": "2025-05-23T14:16:18",
    "ORIGINATOR": "18 SPCS",
    "OBJECT_NAME": "BEIDOU 3M23",
    "OBJECT_ID": "2019-061A",
    "CENTER_NAME": "EARTH",
    "REF_FRAME": "TEME",
    "TIME_SYSTEM": "UTC",
    "MEAN_ELEMENT_THEORY": "SGP4",
    "EPOCH": "2025-05-23T09:55:00.145632",
    "MEAN_MOTION": "1.86228988",
    "ECCENTRICITY": "0.00076810",
    "INCLINATION": "54.4109",
    "RA_OF_ASC_NODE": "195.8735",
    "ARG_OF_PERICENTER": "353.0090",
    "MEAN_ANOMALY": "7.0660",
    "EPHEMERIS_TYPE": "0",
    "CLASSIFICATION_TYPE": "U",
    "NORAD_CAT_ID": "44542",
    "ELEMENT_SET_NO": "999",
    "REV_AT_EPOCH": "3853",
    "BSTAR": "0.00000000000000",
    "MEAN_MOTION_DOT": "0.00000084",
    "MEAN_MOTION_DDOT": "0.0000000000000",
    "SEMIMAJOR_AXIS": "27906.390",
    "PERIOD": "773.242",
    "APOAPSIS": "21549.689",
    "PERIAPSIS": "21506.820",
    "OBJECT_TYPE": "PAYLOAD",
    "RCS_SIZE": "LARGE",
    "COUNTRY_CODE": "PRC",
    "LAUNCH_DATE": "2019-09-22",
    "SITE": "XSC",
    "DECAY_DATE": null,
    "FILE": "4736840",
    "GP_ID": "288171972",
    "TLE_LINE0": "0 BEIDOU 3M23",
    "TLE_LINE1": "1 44542U 19061A   25143.41319613  .00000084  00000-0  00000+0 0  9990",
    "TLE_LINE2": "2 44542  54.4109 195.8735 0007681 353.0090   7.0660  1.86228988 38534"
}